{
  "type": "FeatureCollection",
  "features": [
    {
      "type": "Feature",
      "properties": {
        "norad_id": 26766,
        "name": "INTELSAT 10 (IS-10)",
        "group": "intelsat",
        "lat": -3.645177316091672,
        "lon": 36.259365183867736,
        "alt_km": 36136.08986982632,
        "timestamp": "2025-12-12T11:38:31.083603+00:00",
        "meta_object_name": "INTELSAT 10 (IS-10)",
        "meta_object_id": "2001-019A",
        "meta_epoch": "2025-12-11T14:11:41.135712",
        "meta_mean_motion": 0.99078808,
        "meta_eccentricity": 0.00077853,
        "meta_inclination": 8.6274,
        "meta_ra_of_asc_node": 61.1692,
        "meta_arg_of_pericenter": 224.4537,
        "meta_mean_anomaly": 151.554,
        "meta_ephemeris_type": 0,
        "meta_classification_type": "U",
        "meta_norad_cat_id": 26766,
        "meta_element_set_no": 999,
        "meta_rev_at_epoch": 4372,
        "meta_bstar": 0,
        "meta_mean_motion_dot": -2.86e-06,
        "meta_mean_motion_ddot": 0,
        "tle_line1": "1 26766U 01019A   25345.59144833 -.00000286  00000+0  00000+0 0  9999",
        "tle_line2": "2 26766   8.6274  61.1692 0007785 224.4537 151.5540  0.99078808 43721"
      },
      "geometry": {
        "type": "Point",
        "coordinates": [
          36.259365183867736,
          -3.645177316091672
        ]
      }
    },
    {
      "type": "Feature",
      "properties": {
        "norad_id": 26900,
        "name": "INTELSAT 902 (IS-902)",
        "group": "intelsat",
        "lat": 4.1910653790949475,
        "lon": -153.93798879954488,
        "alt_km": 35774.23642308289,
        "timestamp": "2025-12-12T11:38:31.083627+00:00",
        "meta_object_name": "INTELSAT 902 (IS-902)",
        "meta_object_id": "2001-039A",
        "meta_epoch": "2025-12-11T04:42:42.842016",
        "meta_mean_motion": 1.00272526,
        "meta_eccentricity": 0.00044264,
        "meta_inclination": 5.6424,
        "meta_ra_of_asc_node": 74.0881,
        "meta_arg_of_pericenter": 184.9809,
        "meta_mean_anomaly": 201.6699,
        "meta_ephemeris_type": 0,
        "meta_classification_type": "U",
        "meta_norad_cat_id": 26900,
        "meta_element_set_no": 999,
        "meta_rev_at_epoch": 8881,
        "meta_bstar": 0,
        "meta_mean_motion_dot": -2.78e-06,
        "meta_mean_motion_ddot": 0,
        "tle_line1": "1 26900U 01039A   25345.19632919 -.00000278  00000+0  00000+0 0  9995",
        "tle_line2": "2 26900   5.6424  74.0881 0004426 184.9809 201.6699  1.00272526 88816"
      },
      "geometry": {
        "type": "Point",
        "coordinates": [
          -153.93798879954488,
          4.1910653790949475
        ]
      }
    },
    {
      "type": "Feature",
      "properties": {
        "norad_id": 27380,
        "name": "INTELSAT 904 (IS-904)",
        "group": "intelsat",
        "lat": 2.9000207550769423,
        "lon": -135.3127870952943,
        "alt_km": 35783.527605247684,
        "timestamp": "2025-12-12T11:38:31.083642+00:00",
        "meta_object_name": "INTELSAT 904 (IS-904)",
        "meta_object_id": "2002-007A",
        "meta_epoch": "2025-12-12T03:03:24.449184",
        "meta_mean_motion": 1.002728,
        "meta_eccentricity": 0.0001523,
        "meta_inclination": 6.4535,
        "meta_ra_of_asc_node": 71.4393,
        "meta_arg_of_pericenter": 225.8238,
        "meta_mean_anomaly": 158.1601,
        "meta_ephemeris_type": 0,
        "meta_classification_type": "U",
        "meta_norad_cat_id": 27380,
        "meta_element_set_no": 999,
        "meta_rev_at_epoch": 4989,
        "meta_bstar": 0,
        "meta_mean_motion_dot": -2.17e-06,
        "meta_mean_motion_ddot": 0,
        "tle_line1": "1 27380U 02007A   25346.12736631 -.00000217  00000+0  00000+0 0  9997",
        "tle_line2": "2 27380   6.4535  71.4393 0001523 225.8238 158.1601  1.00272800 49895"
      },
      "geometry": {
        "type": "Point",
        "coordinates": [
          -135.3127870952943,
          2.9000207550769423
        ]
      }
    },
    {
      "type": "Feature",
      "properties": {
        "norad_id": 27426,
        "name": "DIRECTV 5 (TEMPO 1)",
        "group": "intelsat",
        "lat": 4.094011212146965,
        "lon": 145.8442349902298,
        "alt_km": 35794.32541552222,
        "timestamp": "2025-12-12T11:38:31.083655+00:00",
        "meta_object_name": "DIRECTV 5 (TEMPO 1)",
        "meta_object_id": "2002-023A",
        "meta_epoch": "2025-12-12T03:46:38.737056",
        "meta_mean_motion": 1.00272009,
        "meta_eccentricity": 0.0003488,
        "meta_inclination": 4.401,
        "meta_ra_of_asc_node": 77.6596,
        "meta_arg_of_pericenter": 195.1636,
        "meta_mean_anomaly": 114.8209,
        "meta_ephemeris_type": 0,
        "meta_classification_type": "U",
        "meta_norad_cat_id": 27426,
        "meta_element_set_no": 999,
        "meta_rev_at_epoch": 8624,
        "meta_bstar": 0,
        "meta_mean_motion_dot": -4.8e-07,
        "meta_mean_motion_ddot": 0,
        "tle_line1": "1 27426U 02023A   25346.15739279 -.00000048  00000+0  00000+0 0  9992",
        "tle_line2": "2 27426   4.4010  77.6596 0003488 195.1636 114.8209  1.00272009 86242"
      },
      "geometry": {
        "type": "Point",
        "coordinates": [
          145.8442349902298,
          4.094011212146965
        ]
      }
    },
    {
      "type": "Feature",
      "properties": {
        "norad_id": 27438,
        "name": "INTELSAT 905 (IS-905)",
        "group": "intelsat",
        "lat": 4.590688462456451,
        "lon": 118.67341445055504,
        "alt_km": 35795.08944442458,
        "timestamp": "2025-12-12T11:38:31.083668+00:00",
        "meta_object_name": "INTELSAT 905 (IS-905)",
        "meta_object_id": "2002-027A",
        "meta_epoch": "2025-12-11T12:11:37.320576",
        "meta_mean_motion": 1.00272852,
        "meta_eccentricity": 0.00027503,
        "meta_inclination": 6.283,
        "meta_ra_of_asc_node": 72.0704,
        "meta_arg_of_pericenter": 196.0234,
        "meta_mean_anomaly": 218.0777,
        "meta_ephemeris_type": 0,
        "meta_classification_type": "U",
        "meta_norad_cat_id": 27438,
        "meta_element_set_no": 999,
        "meta_rev_at_epoch": 4948,
        "meta_bstar": 0,
        "meta_mean_motion_dot": 1e-06,
        "meta_mean_motion_ddot": 0,
        "tle_line1": "1 27438U 02027A   25345.50807084  .00000100  00000+0  00000+0 0  9995",
        "tle_line2": "2 27438   6.2830  72.0704 0002750 196.0234 218.0777  1.00272852 49488"
      },
      "geometry": {
        "type": "Point",
        "coordinates": [
          118.67341445055504,
          4.590688462456451
        ]
      }
    },
    {
      "type": "Feature",
      "properties": {
        "norad_id": 27445,
        "name": "GALAXY 3C (G-3C)",
        "group": "intelsat",
        "lat": 3.2211935415143103,
        "lon": 161.1774637742302,
        "alt_km": 35781.2127455835,
        "timestamp": "2025-12-12T11:38:31.083681+00:00",
        "meta_object_name": "GALAXY 3C (G-3C)",
        "meta_object_id": "2002-030A",
        "meta_epoch": "2025-12-12T02:45:26.170272",
        "meta_mean_motion": 1.00271456,
        "meta_eccentricity": 0.0001101,
        "meta_inclination": 3.2629,
        "meta_ra_of_asc_node": 80.5134,
        "meta_arg_of_pericenter": 90.2261,
        "meta_mean_anomaly": 216.8216,
        "meta_ephemeris_type": 0,
        "meta_classification_type": "U",
        "meta_norad_cat_id": 27445,
        "meta_element_set_no": 999,
        "meta_rev_at_epoch": 4461,
        "meta_bstar": 0,
        "meta_mean_motion_dot": -1.43e-06,
        "meta_mean_motion_ddot": 0,
        "tle_line1": "1 27445U 02030A   25346.11488623 -.00000143  00000+0  00000+0 0  9997",
        "tle_line2": "2 27445   3.2629  80.5134 0001101  90.2261 216.8216  1.00271456 44617"
      },
      "geometry": {
        "type": "Point",
        "coordinates": [
          161.1774637742302,
          3.2211935415143103
        ]
      }
    },
    {
      "type": "Feature",
      "properties": {
        "norad_id": 27513,
        "name": "INTELSAT 906 (IS-906)",
        "group": "intelsat",
        "lat": -4.836666026574796,
        "lon": -39.84722290389231,
        "alt_km": 35771.09495893809,
        "timestamp": "2025-12-12T11:38:31.083693+00:00",
        "meta_object_name": "INTELSAT 906 (IS-906)",
        "meta_object_id": "2002-041A",
        "meta_epoch": "2025-12-11T20:06:53.261280",
        "meta_mean_motion": 1.00271417,
        "meta_eccentricity": 0.00061629,
        "meta_inclination": 5.3265,
        "meta_ra_of_asc_node": 75.242,
        "meta_arg_of_pericenter": 192.0283,
        "meta_mean_anomaly": 179.375,
        "meta_ephemeris_type": 0,
        "meta_classification_type": "U",
        "meta_norad_cat_id": 27513,
        "meta_element_set_no": 999,
        "meta_rev_at_epoch": 8515,
        "meta_bstar": 0,
        "meta_mean_motion_dot": 2.1e-07,
        "meta_mean_motion_ddot": 0,
        "tle_line1": "1 27513U 02041A   25345.83811645  .00000021  00000+0  00000+0 0  9991",
        "tle_line2": "2 27513   5.3265  75.2420 0006162 192.0283 179.3750  1.00271417 85155"
      },
      "geometry": {
        "type": "Point",
        "coordinates": [
          -39.84722290389231,
          -4.836666026574796
        ]
      }
    }
  ]
}